[{"OBJECT_NAME":"ONEWEB-0082","OBJECT_ID":"2020-020AE","EPOCH":"2025-12-27T04:59:04.250112","MEAN_MOTION":13.11418209,"ECCENTRICITY":0.0001934,"INCLINATION":87.8861,"RA_OF_ASC_NODE":55.287,"ARG_OF_PERICENTER":95.1194,"MEAN_ANOMALY":265.0155,"EPHEMERIS_TYPE":0,"CLASSIFICATION_TYPE":"U","NORAD_CAT_ID":45452,"ELEMENT_SET_NO":999,"REV_AT_EPOCH":28013,"BSTAR":0.00050446581,"MEAN_MOTION_DOT":1.91e-6,"MEAN_MOTION_DDOT":0},{"OBJECT_NAME":"ONEWEB-0050","OBJECT_ID":"2020-020AF","EPOCH":"2025-12-27T05:13:30.525888","MEAN_MOTION":14.8964717,"ECCENTRICITY":0.00016279,"INCLINATION":88.923,"RA_OF_ASC_NODE":256.6687,"ARG_OF_PERICENTER":171.5938,"MEAN_ANOMALY":188.5318,"EPHEMERIS_TYPE":0,"CLASSIFICATION_TYPE":"U","NORAD_CAT_ID":45453,"ELEMENT_SET_NO":999,"REV_AT_EPOCH":31477,"BSTAR":0.00036558912,"MEAN_MOTION_DOT":3.513e-5,"MEAN_MOTION_DDOT":0},{"OBJECT_NAME":"ONEWEB-0034","OBJECT_ID":"2020-020AG","EPOCH":"2025-12-27T05:29:35.649312","MEAN_MOTION":13.1141626,"ECCENTRICITY":0.00017897,"INCLINATION":87.8848,"RA_OF_ASC_NODE":55.2951,"ARG_OF_PERICENTER":99.5775,"MEAN_ANOMALY":260.5555,"EPHEMERIS_TYPE":0,"CLASSIFICATION_TYPE":"U","NORAD_CAT_ID":45454,"ELEMENT_SET_NO":999,"REV_AT_EPOCH":28005,"BSTAR":0.0013951177,"MEAN_MOTION_DOT":5.07e-6,"MEAN_MOTION_DDOT":0},{"OBJECT_NAME":"ONEWEB-0060","OBJECT_ID":"2020-020AH","EPOCH":"2025-12-27T04:48:03.320352","MEAN_MOTION":13.11416702,"ECCENTRICITY":0.00025873,"INCLINATION":87.8842,"RA_OF_ASC_NODE":55.3172,"ARG_OF_PERICENTER":82.2589,"MEAN_ANOMALY":277.8832,"EPHEMERIS_TYPE":0,"CLASSIFICATION_TYPE":"U","NORAD_CAT_ID":45455,"ELEMENT_SET_NO":999,"REV_AT_EPOCH":28000,"BSTAR":-0.00039440245,"MEAN_MOTION_DOT":-1.27e-6,"MEAN_MOTION_DDOT":0},{"OBJECT_NAME":"ONEWEB-0086","OBJECT_ID":"2020-020AJ","EPOCH":"2025-12-27T04:17:32.998560","MEAN_MOTION":13.11415363,"ECCENTRICITY":0.00018954,"INCLINATION":87.885,"RA_OF_ASC_NODE":55.3023,"ARG_OF_PERICENTER":77.7911,"MEAN_ANOMALY":282.3429,"EPHEMERIS_TYPE":0,"CLASSIFICATION_TYPE":"U","NORAD_CAT_ID":45456,"ELEMENT_SET_NO":999,"REV_AT_EPOCH":28006,"BSTAR":-0.001149446,"MEAN_MOTION_DOT":-3.95e-6,"MEAN_MOTION_DDOT":0},{"OBJECT_NAME":"ONEWEB-0088","OBJECT_ID":"2020-020AK","EPOCH":"2025-12-27T03:45:50.954400","MEAN_MOTION":13.11415962,"ECCENTRICITY":0.00020068,"INCLINATION":87.886,"RA_OF_ASC_NODE":55.2632,"ARG_OF_PERICENTER":107.2169,"MEAN_ANOMALY":252.9178,"EPHEMERIS_TYPE":0,"CLASSIFICATION_TYPE":"U","NORAD_CAT_ID":45457,"ELEMENT_SET_NO":999,"REV_AT_EPOCH":27999,"BSTAR":0.0011021556,"MEAN_MOTION_DOT":4.03e-6,"MEAN_MOTION_DDOT":0},{"OBJECT_NAME":"ONEWEB-0102","OBJECT_ID":"2020-100A","EPOCH":"2025-12-26T23:46:13.266048","MEAN_MOTION":13.12441968,"ECCENTRICITY":0.0001668,"INCLINATION":87.8922,"RA_OF_ASC_NODE":24.8861,"ARG_OF_PERICENTER":91.9867,"MEAN_ANOMALY":268.1452,"EPHEMERIS_TYPE":0,"CLASSIFICATION_TYPE":"U","NORAD_CAT_ID":47258,"ELEMENT_SET_NO":999,"REV_AT_EPOCH":24214,"BSTAR":0.0011389,"MEAN_MOTION_DOT":4.22e-6,"MEAN_MOTION_DDOT":0},{"OBJECT_NAME":"ONEWEB-0109","OBJECT_ID":"2020-100B","EPOCH":"2025-12-27T03:37:59.902464","MEAN_MOTION":13.12440803,"ECCENTRICITY":0.00016407,"INCLINATION":87.8928,"RA_OF_ASC_NODE":24.8235,"ARG_OF_PERICENTER":91.9047,"MEAN_ANOMALY":268.227,"EPHEMERIS_TYPE":0,"CLASSIFICATION_TYPE":"U","NORAD_CAT_ID":47259,"ELEMENT_SET_NO":999,"REV_AT_EPOCH":24199,"BSTAR":0.00053883332,"MEAN_MOTION_DOT":2.07e-6,"MEAN_MOTION_DDOT":0},{"OBJECT_NAME":"ONEWEB-0110","OBJECT_ID":"2020-100C","EPOCH":"2025-12-27T02:27:15.313248","MEAN_MOTION":13.12442383,"ECCENTRICITY":0.00018541,"INCLINATION":87.893,"RA_OF_ASC_NODE":24.818,"ARG_OF_PERICENTER":86.5917,"MEAN_ANOMALY":273.5424,"EPHEMERIS_TYPE":0,"CLASSIFICATION_TYPE":"U","NORAD_CAT_ID":47260,"ELEMENT_SET_NO":999,"REV_AT_EPOCH":24215,"BSTAR":-0.00098915008,"MEAN_MOTION_DOT":-3.43e-6,"MEAN_MOTION_DDOT":0},{"OBJECT_NAME":"ONEWEB-0111","OBJECT_ID":"2020-100D","EPOCH":"2025-12-27T03:11:13.504416","MEAN_MOTION":13.12452273,"ECCENTRICITY":0.00019277,"INCLINATION":87.8928,"RA_OF_ASC_NODE":24.8298,"ARG_OF_PERICENTER":91.8472,"MEAN_ANOMALY":268.2877,"EPHEMERIS_TYPE":0,"CLASSIFICATION_TYPE":"U","NORAD_CAT_ID":47261,"ELEMENT_SET_NO":999,"REV_AT_EPOCH":24199,"BSTAR":0.00081243968,"MEAN_MOTION_DOT":3.05e-6,"MEAN_MOTION_DDOT":0},{"OBJECT_NAME":"ONEWEB-0114","OBJECT_ID":"2020-100E","EPOCH":"2025-12-27T02:05:17.498976","MEAN_MOTION":13.12441765,"ECCENTRICITY":0.00014602,"INCLINATION":87.8932,"RA_OF_ASC_NODE":24.8335,"ARG_OF_PERICENTER":101.241,"MEAN_ANOMALY":258.8882,"EPHEMERIS_TYPE":0,"CLASSIFICATION_TYPE":"U","NORAD_CAT_ID":47262,"ELEMENT_SET_NO":999,"REV_AT_EPOCH":24194,"BSTAR":-0.00035315616,"MEAN_MOTION_DOT":-1.14e-6,"MEAN_MOTION_DDOT":0},{"OBJECT_NAME":"ONEWEB-0117","OBJECT_ID":"2020-100F","EPOCH":"2025-12-27T03:42:52.477920","MEAN_MOTION":13.12440484,"ECCENTRICITY":0.00017713,"INCLINATION":87.8929,"RA_OF_ASC_NODE":24.8168,"ARG_OF_PERICENTER":92.7834,"MEAN_ANOMALY":267.3497,"EPHEMERIS_TYPE":0,"CLASSIFICATION_TYPE":"U","NORAD_CAT_ID":47263,"ELEMENT_SET_NO":999,"REV_AT_EPOCH":24196,"BSTAR":0.00039220831,"MEAN_MOTION_DOT":1.54e-6,"MEAN_MOTION_DDOT":0},{"OBJECT_NAME":"ONEWEB-0118","OBJECT_ID":"2020-100G","EPOCH":"2025-12-27T02:41:53.570976","MEAN_MOTION":13.12441817,"ECCENTRICITY":0.00017112,"INCLINATION":87.8927,"RA_OF_ASC_NODE":24.8255,"ARG_OF_PERICENTER":106.9394,"MEAN_ANOMALY":253.1922,"EPHEMERIS_TYPE":0,"CLASSIFICATION_TYPE":"U","NORAD_CAT_ID":47264,"ELEMENT_SET_NO":999,"REV_AT_EPOCH":24215,"BSTAR":-0.00050346541,"MEAN_MOTION_DOT":-1.68e-6,"MEAN_MOTION_DDOT":0},{"OBJECT_NAME":"ONEWEB-0119","OBJECT_ID":"2020-100H","EPOCH":"2025-12-27T01:28:40.947456","MEAN_MOTION":13.12443516,"ECCENTRICITY":0.00017374,"INCLINATION":87.8919,"RA_OF_ASC_NODE":24.8681,"ARG_OF_PERICENTER":91.1424,"MEAN_ANOMALY":268.9904,"EPHEMERIS_TYPE":0,"CLASSIFICATION_TYPE":"U","NORAD_CAT_ID":47265,"ELEMENT_SET_NO":999,"REV_AT_EPOCH":24212,"BSTAR":0.0012567022,"MEAN_MOTION_DOT":4.65e-6,"MEAN_MOTION_DDOT":0},{"OBJECT_NAME":"ONEWEB-0120","OBJECT_ID":"2020-100J","EPOCH":"2025-12-27T03:52:49.227168","MEAN_MOTION":13.12440808,"ECCENTRICITY":0.00016572,"INCLINATION":87.8919,"RA_OF_ASC_NODE":24.8494,"ARG_OF_PERICENTER":94.6493,"MEAN_ANOMALY":265.4824,"EPHEMERIS_TYPE":0,"CLASSIFICATION_TYPE":"U","NORAD_CAT_ID":47266,"ELEMENT_SET_NO":999,"REV_AT_EPOCH":24216,"BSTAR":-0.00028383429,"MEAN_MOTION_DOT":-8.9e-7,"MEAN_MOTION_DDOT":0},{"OBJECT_NAME":"ONEWEB-0121","OBJECT_ID":"2020-100K","EPOCH":"2025-12-27T03:35:32.771904","MEAN_MOTION":13.12441813,"ECCENTRICITY":0.00018733,"INCLINATION":87.8927,"RA_OF_ASC_NODE":24.8217,"ARG_OF_PERICENTER":87.2764,"MEAN_ANOMALY":272.8579,"EPHEMERIS_TYPE":0,"CLASSIFICATION_TYPE":"U","NORAD_CAT_ID":47267,"ELEMENT_SET_NO":999,"REV_AT_EPOCH":24207,"BSTAR":0.00069733406,"MEAN_MOTION_DOT":2.64e-6,"MEAN_MOTION_DDOT":0}]
